IRIDIUM 106             
1 41917U 17003A   23344.82549897  .00000267  00000+0  88379-4 0  9994
2 41917  86.3964 112.7654 0002230  87.9968 272.1484 14.34216707361430
IRIDIUM 103             
1 41918U 17003B   23344.81280729  .00000272  00000+0  90154-4 0  9990
2 41918  86.3962 112.6731 0002212 101.4205 258.7239 14.34218091361469
IRIDIUM 109             
1 41919U 17003C   23344.81914172  .00000280  00000+0  93036-4 0  9998
2 41919  86.3965 112.7149 0001878  99.8101 260.3307 14.34216609361445
IRIDIUM 102             
1 41920U 17003D   23344.78743300  .00000280  00000+0  92758-4 0  9999
2 41920  86.3962 112.6712 0001893  96.0226 264.1186 14.34219174361507
IRIDIUM 105             
1 41921U 17003E   23344.82791388  .00000298  00000+0  99182-4 0  9991
2 41921  86.3973  81.0619 0002148  97.1781 262.9659 14.34213402363362
IRIDIUM 104             
1 41922U 17003F   23344.80012109  .00000265  00000+0  87692-4 0  9994
2 41922  86.3961 112.6939 0001969 100.5574 259.5843 14.34217128361493
IRIDIUM 114             
1 41923U 17003G   23343.82970246  .00000277  00000+0  91706-4 0  9995
2 41923  86.3963 113.0869 0002087  86.6722 273.4712 14.34218630361336
IRIDIUM 108             
1 41924U 17003H   23344.27659673 -.00000209  00000+0 -81613-4 0  9997
2 41924  86.3969  81.2295 0002233  92.7022 267.4430 14.34215141363253
